SITRO-AIS-63            
1 67294U 25313AY  26024.11506564  .00017884  00000+0  78704-3 0  9990
2 67294  97.4095 101.1771 0010384 137.8712 222.3324 15.21867529  4049
ZORKIY-2M-5             
1 67295U 25313AZ  26024.18114667  .00014143  00000+0  62442-3 0  9994
2 67295  97.4086 101.2367 0011876 128.8278 231.4020 15.21792953  4059
SITRO-AIS-62            
1 67296U 25313BA  26024.17994181  .00019558  00000+0  85875-3 0  9991
2 67296  97.4098 101.2447 0010153 138.1224 222.0791 15.21926852  4052
SITRO-AIS-61            
1 67297U 25313BB  26024.11317298  .00018964  00000+0  83153-3 0  9991
2 67297  97.4101 101.1812 0009839 140.2012 219.9947 15.21982925  4041
TIANHUI 7               
1 67300U 25314A   26020.93104818  .00004960  00000+0  19817-3 0  9992
2 67300  97.4187  97.9671 0001561 100.1824 259.9591 15.25587940  3337
CZ-4B R/B               
1 67301U 25314B   26024.15958343  .00160297  98034-5  72488-3 0  9990
2 67301  97.3706 102.6712 0132559 284.2708  74.3865 15.71832664  3881
SHIJIAN-29A (SJ-29A)    
1 67302U 25315A   26024.16017054 -.00000052  00000+0  00000+0 0  9998
2 67302   3.0318  98.9326 0001418 297.7326 217.4963  1.00270924   177
CZ-7A R/B               
1 67303U 25315B   26023.60178066  .00078192 -53912-6  23636-2 0  9998
2 67303  19.5956  90.5585 7179623 197.2625 111.9631  2.45303663   582
CSG-3                   
1 67304U 26001A   26024.20079050  .00000880  00000+0  11606-3 0  9998
2 67304  97.8451 209.9171 0001602  85.4758 274.6638 14.82520314  3134
STARLINK-36490          
1 67305U 26002A   26023.92041572 -.00648849  00000+0 -46939-2 0  9997
2 67305  42.9990 221.4455 0003719 249.0863 110.9608 15.74333209  4254
STARLINK-36488          
1 67306U 26002B   26023.85663355 -.00487325  00000+0 -34252-2 0  9994
2 67306  42.9995 221.8279 0002252 294.2821  65.7813 15.74568663  4186
STARLINK-36481          
1 67307U 26002C   26023.91940054 -.00371319  00000+0 -25833-2 0  9996
2 67307  42.9990 221.4382 0001818 270.8171  89.2490 15.74487746  4193
