CCSDS_OMM_VERS = 2.0
CREATION_DATE  = 
ORIGINATOR     = 

OBJECT_NAME    = SITRO-AIS-63
OBJECT_ID      = 2025-313AY
CENTER_NAME    = EARTH
REF_FRAME      = TEME
TIME_SYSTEM    = UTC
MEAN_ELEMENT_THEORY = SGP/SGP4

EPOCH          = 2026-01-24T02:45:41.671296
MEAN_MOTION    = 15.21867529
ECCENTRICITY   = .0010384
INCLINATION    = 97.4095
RA_OF_ASC_NODE = 101.1771
ARG_OF_PERICENTER = 137.8712
MEAN_ANOMALY   = 222.3324

EPHEMERIS_TYPE = 0
CLASSIFICATION_TYPE = U
NORAD_CAT_ID   = 67294
ELEMENT_SET_NO = 999
REV_AT_EPOCH   = 404
BSTAR          = .78704E-3
MEAN_MOTION_DOT = .17884E-3
MEAN_MOTION_DDOT = 0

CCSDS_OMM_VERS = 2.0
CREATION_DATE  = 
ORIGINATOR     = 

OBJECT_NAME    = ZORKIY-2M-5
OBJECT_ID      = 2025-313AZ
CENTER_NAME    = EARTH
REF_FRAME      = TEME
TIME_SYSTEM    = UTC
MEAN_ELEMENT_THEORY = SGP/SGP4

EPOCH          = 2026-01-24T04:20:51.072288
MEAN_MOTION    = 15.21792953
ECCENTRICITY   = .0011876
INCLINATION    = 97.4086
RA_OF_ASC_NODE = 101.2367
ARG_OF_PERICENTER = 128.8278
MEAN_ANOMALY   = 231.4020

EPHEMERIS_TYPE = 0
CLASSIFICATION_TYPE = U
NORAD_CAT_ID   = 67295
ELEMENT_SET_NO = 999
REV_AT_EPOCH   = 405
BSTAR          = .62442E-3
MEAN_MOTION_DOT = .14143E-3
MEAN_MOTION_DDOT = 0

CCSDS_OMM_VERS = 2.0
CREATION_DATE  = 
ORIGINATOR     = 

OBJECT_NAME    = SITRO-AIS-62
OBJECT_ID      = 2025-313BA
CENTER_NAME    = EARTH
REF_FRAME      = TEME
TIME_SYSTEM    = UTC
MEAN_ELEMENT_THEORY = SGP/SGP4

EPOCH          = 2026-01-24T04:19:06.972384
MEAN_MOTION    = 15.21926852
ECCENTRICITY   = .0010153
INCLINATION    = 97.4098
RA_OF_ASC_NODE = 101.2447
ARG_OF_PERICENTER = 138.1224
MEAN_ANOMALY   = 222.0791

EPHEMERIS_TYPE = 0
CLASSIFICATION_TYPE = U
NORAD_CAT_ID   = 67296
ELEMENT_SET_NO = 999
REV_AT_EPOCH   = 405
BSTAR          = .85875E-3
MEAN_MOTION_DOT = .19558E-3
MEAN_MOTION_DDOT = 0

CCSDS_OMM_VERS = 2.0
CREATION_DATE  = 
ORIGINATOR     = 

OBJECT_NAME    = SITRO-AIS-61
OBJECT_ID      = 2025-313BB
CENTER_NAME    = EARTH
REF_FRAME      = TEME
TIME_SYSTEM    = UTC
MEAN_ELEMENT_THEORY = SGP/SGP4

EPOCH          = 2026-01-24T02:42:58.145472
MEAN_MOTION    = 15.21982925
ECCENTRICITY   = .0009839
INCLINATION    = 97.4101
RA_OF_ASC_NODE = 101.1812
ARG_OF_PERICENTER = 140.2012
MEAN_ANOMALY   = 219.9947

EPHEMERIS_TYPE = 0
CLASSIFICATION_TYPE = U
NORAD_CAT_ID   = 67297
ELEMENT_SET_NO = 999
REV_AT_EPOCH   = 404
BSTAR          = .83153E-3
MEAN_MOTION_DOT = .18964E-3
MEAN_MOTION_DDOT = 0

CCSDS_OMM_VERS = 2.0
CREATION_DATE  = 
ORIGINATOR     = 

OBJECT_NAME    = TIANHUI 7
OBJECT_ID      = 2025-314A
CENTER_NAME    = EARTH
REF_FRAME      = TEME
TIME_SYSTEM    = UTC
MEAN_ELEMENT_THEORY = SGP/SGP4

EPOCH          = 2026-01-20T22:20:42.562752
MEAN_MOTION    = 15.25587940
ECCENTRICITY   = .00015619
INCLINATION    = 97.4187
RA_OF_ASC_NODE = 97.9671
ARG_OF_PERICENTER = 100.1824
MEAN_ANOMALY   = 259.9591

EPHEMERIS_TYPE = 0
CLASSIFICATION_TYPE = U
NORAD_CAT_ID   = 67300
ELEMENT_SET_NO = 999
REV_AT_EPOCH   = 333
BSTAR          = .19816833E-3
MEAN_MOTION_DOT = .496E-4
MEAN_MOTION_DDOT = 0

CCSDS_OMM_VERS = 2.0
CREATION_DATE  = 
ORIGINATOR     = 

OBJECT_NAME    = CZ-4B R/B
OBJECT_ID      = 2025-314B
CENTER_NAME    = EARTH
REF_FRAME      = TEME
TIME_SYSTEM    = UTC
MEAN_ELEMENT_THEORY = SGP/SGP4

EPOCH          = 2026-01-24T03:49:48.008352
MEAN_MOTION    = 15.71832664
ECCENTRICITY   = .0132559
INCLINATION    = 97.3706
RA_OF_ASC_NODE = 102.6712
ARG_OF_PERICENTER = 284.2708
MEAN_ANOMALY   = 74.3865

EPHEMERIS_TYPE = 0
CLASSIFICATION_TYPE = U
NORAD_CAT_ID   = 67301
ELEMENT_SET_NO = 999
REV_AT_EPOCH   = 388
BSTAR          = .72488E-3
MEAN_MOTION_DOT = .160297E-2
MEAN_MOTION_DDOT = .98034E-5

CCSDS_OMM_VERS = 2.0
CREATION_DATE  = 
ORIGINATOR     = 

OBJECT_NAME    = SHIJIAN-29A (SJ-29A)
OBJECT_ID      = 2025-315A
CENTER_NAME    = EARTH
REF_FRAME      = TEME
TIME_SYSTEM    = UTC
MEAN_ELEMENT_THEORY = SGP/SGP4

EPOCH          = 2026-01-24T03:50:38.734656
MEAN_MOTION    = 1.00270924
ECCENTRICITY   = .0001418
INCLINATION    = 3.0318
RA_OF_ASC_NODE = 98.9326
ARG_OF_PERICENTER = 297.7326
MEAN_ANOMALY   = 217.4963

EPHEMERIS_TYPE = 0
CLASSIFICATION_TYPE = U
NORAD_CAT_ID   = 67302
ELEMENT_SET_NO = 999
REV_AT_EPOCH   = 17
BSTAR          = 0
MEAN_MOTION_DOT = -.52E-6
MEAN_MOTION_DDOT = 0

CCSDS_OMM_VERS = 2.0
CREATION_DATE  = 
ORIGINATOR     = 

OBJECT_NAME    = CZ-7A R/B
OBJECT_ID      = 2025-315B
CENTER_NAME    = EARTH
REF_FRAME      = TEME
TIME_SYSTEM    = UTC
MEAN_ELEMENT_THEORY = SGP/SGP4

EPOCH          = 2026-01-23T14:26:33.849024
MEAN_MOTION    = 2.45303663
ECCENTRICITY   = .71796237
INCLINATION    = 19.5956
RA_OF_ASC_NODE = 90.5585
ARG_OF_PERICENTER = 197.2625
MEAN_ANOMALY   = 111.9631

EPHEMERIS_TYPE = 0
CLASSIFICATION_TYPE = U
NORAD_CAT_ID   = 67303
ELEMENT_SET_NO = 999
REV_AT_EPOCH   = 58
BSTAR          = .23635903E-2
MEAN_MOTION_DOT = .78192E-3
MEAN_MOTION_DDOT = -.539116E-6

CCSDS_OMM_VERS = 2.0
CREATION_DATE  = 
ORIGINATOR     = 

OBJECT_NAME    = CSG-3
OBJECT_ID      = 2026-001A
CENTER_NAME    = EARTH
REF_FRAME      = TEME
TIME_SYSTEM    = UTC
MEAN_ELEMENT_THEORY = SGP/SGP4

EPOCH          = 2026-01-24T04:49:08.299200
MEAN_MOTION    = 14.82520314
ECCENTRICITY   = .0001602
INCLINATION    = 97.8451
RA_OF_ASC_NODE = 209.9171
ARG_OF_PERICENTER = 85.4758
MEAN_ANOMALY   = 274.6638

EPHEMERIS_TYPE = 0
CLASSIFICATION_TYPE = U
NORAD_CAT_ID   = 67304
ELEMENT_SET_NO = 999
REV_AT_EPOCH   = 313
BSTAR          = .11606E-3
MEAN_MOTION_DOT = .88E-5
MEAN_MOTION_DDOT = 0

CCSDS_OMM_VERS = 2.0
CREATION_DATE  = 
ORIGINATOR     = 

OBJECT_NAME    = STARLINK-36490
OBJECT_ID      = 2026-002A
CENTER_NAME    = EARTH
REF_FRAME      = TEME
TIME_SYSTEM    = UTC
MEAN_ELEMENT_THEORY = SGP/SGP4

EPOCH          = 2026-01-23T22:05:23.918208
MEAN_MOTION    = 15.74333209
ECCENTRICITY   = .0003719
INCLINATION    = 42.9990
RA_OF_ASC_NODE = 221.4455
ARG_OF_PERICENTER = 249.0863
MEAN_ANOMALY   = 110.9608

EPHEMERIS_TYPE = 0
CLASSIFICATION_TYPE = U
NORAD_CAT_ID   = 67305
ELEMENT_SET_NO = 999
REV_AT_EPOCH   = 425
BSTAR          = -.46939E-2
MEAN_MOTION_DOT = -.648849E-2
MEAN_MOTION_DDOT = 0

CCSDS_OMM_VERS = 2.0
CREATION_DATE  = 
ORIGINATOR     = 

OBJECT_NAME    = STARLINK-36488
OBJECT_ID      = 2026-002B
CENTER_NAME    = EARTH
REF_FRAME      = TEME
TIME_SYSTEM    = UTC
MEAN_ELEMENT_THEORY = SGP/SGP4

EPOCH          = 2026-01-23T20:33:33.138720
MEAN_MOTION    = 15.74568663
ECCENTRICITY   = .0002252
INCLINATION    = 42.9995
RA_OF_ASC_NODE = 221.8279
ARG_OF_PERICENTER = 294.2821
MEAN_ANOMALY   = 65.7813

EPHEMERIS_TYPE = 0
CLASSIFICATION_TYPE = U
NORAD_CAT_ID   = 67306
ELEMENT_SET_NO = 999
REV_AT_EPOCH   = 418
BSTAR          = -.34252E-2
MEAN_MOTION_DOT = -.487325E-2
MEAN_MOTION_DDOT = 0

CCSDS_OMM_VERS = 2.0
CREATION_DATE  = 
ORIGINATOR     = 

OBJECT_NAME    = STARLINK-36481
OBJECT_ID      = 2026-002C
CENTER_NAME    = EARTH
REF_FRAME      = TEME
TIME_SYSTEM    = UTC
MEAN_ELEMENT_THEORY = SGP/SGP4

EPOCH          = 2026-01-23T22:03:56.206656
MEAN_MOTION    = 15.74487746
ECCENTRICITY   = .0001818
INCLINATION    = 42.9990
RA_OF_ASC_NODE = 221.4382
ARG_OF_PERICENTER = 270.8171
MEAN_ANOMALY   = 89.2490

EPHEMERIS_TYPE = 0
CLASSIFICATION_TYPE = U
NORAD_CAT_ID   = 67307
ELEMENT_SET_NO = 999
REV_AT_EPOCH   = 419
BSTAR          = -.25833E-2
MEAN_MOTION_DOT = -.371319E-2
MEAN_MOTION_DDOT = 0

